ONEWEB-0461             
1 51649U 22012AD  25297.75103980  .00000023  00000+0  27204-4 0  9993
2 51649  87.9124  52.6593 0001758  96.0903 264.0429 13.17649259182887
ONEWEB-0463             
1 51650U 22012AE  25297.73247611  .00000012  00000+0 -33548-5 0  9991
2 51650  87.9105  52.7161 0001598 100.0187 260.1125 13.17650261182663
ONEWEB-0464             
1 51651U 22012AF  25297.77547971  .00000569  00000+0  15923-2 0  9998
2 51651  87.8770  83.2179 0001700 104.7981 255.3334 13.10374020178490
ONEWEB-0468             
1 51652U 22012AG  25297.78212071  .00000568  00000+0  15907-2 0  9991
2 51652  87.8767  83.2089 0001461 102.9527 257.1764 13.10375113178476
ONEWEB-0473             
1 51653U 22012AH  25297.46174537  .00000312  00000+0  85714-3 0  9992
2 51653  87.8771  83.2765 0001474  97.2673 262.8622 13.10375524178433
ONEWEB-0474             
1 51654U 22012AJ  25297.68250913 -.00000090  00000+0 -29343-3 0  9991
2 51654  87.8777  83.1956 0001521 105.8153 254.3142 13.10375781178453
ONEWEB-0475             
1 51655U 22012AK  25297.74428719  .00000024  00000+0  27633-4 0  9996
2 51655  87.9111  52.6987 0001355 127.1999 232.9256 13.17649173182686
ONEWEB-0490             
1 54113U 22138A   25297.64761032  .00000030  00000+0  42005-4 0  9991
2 54113  87.9256 351.8137 0001936 103.7100 256.4248 13.19724028145763
